{
  "type": "FeatureCollection",
  "features": [
    {
      "type": "Feature",
      "geometry": {
        "type": "Point",
        "coordinates": [
          39.47643523839065,
          -3.952759958248617,
          0
        ]
      },
      "properties": {
        "Name": "Lower Check Dam Axis",
        "FID": 1,
        "Name1": "LCD",
        "y": -3.95276,
        "x": 39.476435
      }
    },
    {
      "type": "Feature",
      "geometry": {
        "type": "Point",
        "coordinates": [
          39.5202651199293,
          -3.991035649879987,
          0
        ]
      },
      "properties": {
        "Name": "Main Dam Axis",
        "FID": 2,
        "Name1": "MD",
        "y": -3.991036,
        "x": 39.520265
      }
    }
  ]
}