{
  "type": "FeatureCollection",
  "features": [
    {
      "type": "Feature",
      "geometry": {
        "type": "Polygon",
        "coordinates": [
          [
            [
              39.528081388,
              -3.9747717774,
              0
            ],
            [
              39.5281479386,
              -3.973483035200001,
              0
            ],
            [
              39.5281479386,
              -3.973483035200001,
              0
            ],
            [
              39.5285153884,
              -3.9741192398,
              0
            ],
            [
              39.5285153884,
              -3.9741192398,
              0
            ],
            [
              39.5290628323,
              -3.9749033507,
              0
            ],
            [
              39.5290628323,
              -3.9749033507,
              0
            ],
            [
              39.5289953098,
              -3.9749697703,
              0
            ],
            [
              39.5289953098,
              -3.9749697703,
              0
            ],
            [
              39.528081388,
              -3.9747717774,
              0
            ]
          ]
        ]
      },
      "properties": {
        "id": null,
        "Name": null,
        "descriptio": "0",
        "timestamp": null,
        "begin": null,
        "end": null,
        "altitudeMo": "relativeToGround",
        "tessellate": -1,
        "extrude": 1,
        "visibility": -1,
        "drawOrder": null,
        "icon": null,
        "Entity": null,
        "Layer": null,
        "Color": null,
        "Linetype": null,
        "Elevation": null,
        "LineWt": null,
        "RefName": null,
        "FID_": null,
        "path": "X:\\Mwache Catchment\\Data\\Tree Areas\\1.shp"
      }
    },
    {
      "type": "Feature",
      "geometry": {
        "type": "Polygon",
        "coordinates": [
          [
            [
              39.5267019754,
              -3.974914756,
              0
            ],
            [
              39.5262737132,
              -3.9749872428,
              0
            ],
            [
              39.5262737132,
              -3.9749872428,
              0
            ],
            [
              39.5259910132,
              -3.9748884708,
              0
            ],
            [
              39.5259910132,
              -3.9748884708,
              0
            ],
            [
              39.5254683121,
              -3.9745390882,
              0
            ],
            [
              39.5254683121,
              -3.9745390882,
              0
            ],
            [
              39.5248583247,
              -3.9745208256,
              0
            ],
            [
              39.5248583247,
              -3.9745208256,
              0
            ],
            [
              39.5248393878,
              -3.9740324898,
              0
            ],
            [
              39.5248393878,
              -3.9740324898,
              0
            ],
            [
              39.5248532622,
              -3.9732517867,
              0
            ],
            [
              39.5248532622,
              -3.9732517867,
              0
            ],
            [
              39.5250845695,
              -3.9729858261,
              0
            ],
            [
              39.5250845695,
              -3.9729858261,
              0
            ],
            [
              39.5252796749,
              -3.9727498959,
              0
            ],
            [
              39.5252796749,
              -3.9727498959,
              0
            ],
            [
              39.5257818688,
              -3.9727583687,
              0
            ],
            [
              39.5257818688,
              -3.9727583687,
              0
            ],
            [
              39.5265271014,
              -3.9726634927,
              0
            ],
            [
              39.5265271014,
              -3.9726634927,
              0
            ],
            [
              39.5266923117,
              -3.9726729945,
              0
            ],
            [
              39.5266923117,
              -3.9726729945,
              0
            ],
            [
              39.5274302623,
              -3.9732965493,
              0
            ],
            [
              39.5274302623,
              -3.9732965493,
              0
            ],
            [
              39.5278221026,
              -3.9736478992,
              0
            ],
            [
              39.5278221026,
              -3.9736478992,
              0
            ],
            [
              39.5276858303,
              -3.9747522101,
              0
            ],
            [
              39.5276858303,
              -3.9747522101,
              0
            ],
            [
              39.5267019754,
              -3.974914756,
              0
            ]
          ]
        ]
      },
      "properties": {
        "id": null,
        "Name": null,
        "descriptio": "0",
        "timestamp": null,
        "begin": null,
        "end": null,
        "altitudeMo": "relativeToGround",
        "tessellate": -1,
        "extrude": 1,
        "visibility": -1,
        "drawOrder": null,
        "icon": null,
        "Entity": null,
        "Layer": null,
        "Color": null,
        "Linetype": null,
        "Elevation": null,
        "LineWt": null,
        "RefName": null,
        "FID_": null,
        "path": "X:\\Mwache Catchment\\Data\\Tree Areas\\2.shp"
      }
    },
    {
      "type": "Feature",
      "geometry": {
        "type": "Polygon",
        "coordinates": [
          [
            [
              39.5272091584845,
              -3.97058740904549,
              109.904999999999
            ],
            [
              39.5269459950197,
              -3.97081158765656,
              109.904999999999
            ],
            [
              39.5267602991401,
              -3.97071498036222,
              109.904999999999
            ],
            [
              39.5265682115698,
              -3.97037850742342,
              109.904999999999
            ],
            [
              39.5263610143467,
              -3.9700817491463,
              109.904999999999
            ],
            [
              39.5261783468864,
              -3.969886587206199,
              109.904999999999
            ],
            [
              39.5269255990721,
              -3.96984637478641,
              109.904999999999
            ],
            [
              39.5272091584845,
              -3.97058740904549,
              109.904999999999
            ]
          ]
        ]
      },
      "properties": {
        "id": null,
        "Name": null,
        "descriptio": null,
        "timestamp": null,
        "begin": null,
        "end": null,
        "altitudeMo": null,
        "tessellate": -1,
        "extrude": 0,
        "visibility": -1,
        "drawOrder": null,
        "icon": null,
        "Entity": "LWPolyline",
        "Layer": "0",
        "Color": 60,
        "Linetype": "FENCELINE2",
        "Elevation": 109.905,
        "LineWt": 25,
        "RefName": null,
        "FID_": null,
        "path": "X:\\Mwache Catchment\\Data\\Tree Areas\\3.shp"
      }
    },
    {
      "type": "Feature",
      "geometry": {
        "type": "Polygon",
        "coordinates": [
          [
            [
              39.5269622737381,
              -3.97103108939141,
              109.905
            ],
            [
              39.5268794340134,
              -3.97199135560966,
              109.905
            ],
            [
              39.5258358581765,
              -3.97218048118771,
              109.905
            ],
            [
              39.5254075970183,
              -3.972252967498151,
              109.905
            ],
            [
              39.5251248978584,
              -3.97215419519592,
              109.905
            ],
            [
              39.5246021984666,
              -3.97180481170673,
              109.905
            ],
            [
              39.5241882981434,
              -3.97175112530273,
              109.905
            ],
            [
              39.5234993476685,
              -3.97149539446005,
              109.905
            ],
            [
              39.5240311762471,
              -3.97000216888096,
              109.905
            ],
            [
              39.5261164597221,
              -3.969889917553231,
              109.905
            ],
            [
              39.5264937338994,
              -3.97038757991664,
              109.905
            ],
            [
              39.5269622737381,
              -3.97103108939141,
              109.905
            ]
          ]
        ]
      },
      "properties": {
        "id": null,
        "Name": null,
        "descriptio": null,
        "timestamp": null,
        "begin": null,
        "end": null,
        "altitudeMo": null,
        "tessellate": -1,
        "extrude": 0,
        "visibility": -1,
        "drawOrder": null,
        "icon": null,
        "Entity": "LWPolyline",
        "Layer": "0",
        "Color": 60,
        "Linetype": "FENCELINE2",
        "Elevation": 109.905,
        "LineWt": 25,
        "RefName": null,
        "FID_": 0,
        "path": "X:\\Mwache Catchment\\Data\\Tree Areas\\4.shp"
      }
    },
    {
      "type": "Feature",
      "geometry": {
        "type": "Polygon",
        "coordinates": [
          [
            [
              39.5264159891,
              -3.9903139256,
              0
            ],
            [
              39.5265329213,
              -3.9910052555,
              0
            ],
            [
              39.5265329213,
              -3.9910052555,
              0
            ],
            [
              39.5258749092,
              -3.9913756438,
              0
            ],
            [
              39.5258749092,
              -3.9913756438,
              0
            ],
            [
              39.525315381,
              -3.9902227912,
              0
            ],
            [
              39.525315381,
              -3.9902227912,
              0
            ],
            [
              39.5256904433,
              -3.9895467601,
              0
            ],
            [
              39.5256904433,
              -3.9895467601,
              0
            ],
            [
              39.5260712166,
              -3.9892683094,
              0
            ],
            [
              39.5260712166,
              -3.9892683094,
              0
            ],
            [
              39.5264595006,
              -3.9896666577,
              0
            ],
            [
              39.5264595006,
              -3.9896666577,
              0
            ],
            [
              39.5265352101,
              -3.9899732308,
              0
            ],
            [
              39.5265352101,
              -3.9899732308,
              0
            ],
            [
              39.5264159891,
              -3.9903139256,
              0
            ]
          ]
        ]
      },
      "properties": {
        "id": null,
        "Name": null,
        "descriptio": "0",
        "timestamp": null,
        "begin": null,
        "end": null,
        "altitudeMo": "relativeToGround",
        "tessellate": -1,
        "extrude": 1,
        "visibility": -1,
        "drawOrder": null,
        "icon": null,
        "Entity": null,
        "Layer": null,
        "Color": null,
        "Linetype": null,
        "Elevation": null,
        "LineWt": null,
        "RefName": null,
        "FID_": null,
        "path": "X:\\Mwache Catchment\\Data\\Tree Areas\\g.shp"
      }
    },
    {
      "type": "Feature",
      "geometry": {
        "type": "Polygon",
        "coordinates": [
          [
            [
              39.5337767508,
              -3.984597,
              0
            ],
            [
              39.5335143286,
              -3.9851039752,
              0
            ],
            [
              39.5338614307,
              -3.985461745,
              0
            ],
            [
              39.5335148049,
              -3.9862032452,
              0
            ],
            [
              39.5333633625,
              -3.9861090727,
              0
            ],
            [
              39.533185401,
              -3.9859984908,
              0
            ],
            [
              39.5333590555,
              -3.9856328955,
              0
            ],
            [
              39.5325494626,
              -3.9849443137,
              0
            ],
            [
              39.5332460732,
              -3.9838489454,
              0
            ],
            [
              39.5337354951,
              -3.9839981948,
              0
            ],
            [
              39.5337767508,
              -3.984597,
              0
            ]
          ]
        ]
      },
      "properties": {
        "id": null,
        "Name": null,
        "descriptio": "0",
        "timestamp": null,
        "begin": null,
        "end": null,
        "altitudeMo": "relativeToGround",
        "tessellate": -1,
        "extrude": 1,
        "visibility": -1,
        "drawOrder": null,
        "icon": null,
        "Entity": null,
        "Layer": null,
        "Color": null,
        "Linetype": null,
        "Elevation": null,
        "LineWt": null,
        "RefName": null,
        "FID_": null,
        "path": "X:\\Mwache Catchment\\Data\\Tree Areas\\mf.shp"
      }
    },
    {
      "type": "Feature",
      "geometry": {
        "type": "Polygon",
        "coordinates": [
          [
            [
              39.5160636093,
              -3.9929510138,
              0
            ],
            [
              39.5150463341,
              -3.9911655617,
              0
            ],
            [
              39.5150463341,
              -3.9911655617,
              0
            ],
            [
              39.5165966825,
              -3.9904352687,
              0
            ],
            [
              39.5165966825,
              -3.9904352687,
              0
            ],
            [
              39.5162529544,
              -3.9899192626,
              0
            ],
            [
              39.5162529544,
              -3.9899192626,
              0
            ],
            [
              39.5174242585,
              -3.9893916655,
              0
            ],
            [
              39.5174242585,
              -3.9893916655,
              0
            ],
            [
              39.5177958348,
              -3.9893242518,
              0
            ],
            [
              39.5177958348,
              -3.9893242518,
              0
            ],
            [
              39.517994158,
              -3.9900193512,
              0
            ],
            [
              39.517994158,
              -3.9900193512,
              0
            ],
            [
              39.5181324085,
              -3.9913338807,
              0
            ],
            [
              39.5181324085,
              -3.9913338807,
              0
            ],
            [
              39.5176867431,
              -3.9917179393,
              0
            ],
            [
              39.5176867431,
              -3.9917179393,
              0
            ],
            [
              39.5178908157,
              -3.9926046879,
              0
            ],
            [
              39.5178908157,
              -3.9926046879,
              0
            ],
            [
              39.5173913971,
              -3.9927322205,
              0
            ],
            [
              39.5173913971,
              -3.9927322205,
              0
            ],
            [
              39.5165163197,
              -3.992747656500001,
              0
            ],
            [
              39.5165163197,
              -3.992747656500001,
              0
            ],
            [
              39.5160636093,
              -3.9929510138,
              0
            ]
          ]
        ]
      },
      "properties": {
        "id": null,
        "Name": null,
        "descriptio": "0",
        "timestamp": null,
        "begin": null,
        "end": null,
        "altitudeMo": "relativeToGround",
        "tessellate": -1,
        "extrude": 1,
        "visibility": -1,
        "drawOrder": null,
        "icon": null,
        "Entity": null,
        "Layer": null,
        "Color": null,
        "Linetype": null,
        "Elevation": null,
        "LineWt": null,
        "RefName": null,
        "FID_": null,
        "path": "X:\\Mwache Catchment\\Data\\Tree Areas\\rb.shp"
      }
    },
    {
      "type": "Feature",
      "geometry": {
        "type": "Polygon",
        "coordinates": [
          [
            [
              39.5371215305,
              -3.9809456413,
              0
            ],
            [
              39.5366526291,
              -3.981678777,
              0
            ],
            [
              39.536684857,
              -3.982367447200001,
              0
            ],
            [
              39.5370429659,
              -3.982361512,
              0
            ],
            [
              39.536959907,
              -3.9829697391,
              0
            ],
            [
              39.5363253439,
              -3.9829555124,
              0
            ],
            [
              39.5357721996,
              -3.982727252,
              0
            ],
            [
              39.5356005668,
              -3.982222976000001,
              0
            ],
            [
              39.5355695299,
              -3.9814358494,
              0
            ],
            [
              39.5359900987,
              -3.9805714606,
              0
            ],
            [
              39.5363668705,
              -3.9799070329,
              0
            ],
            [
              39.5367039314,
              -3.9803643032,
              0
            ],
            [
              39.5371215305,
              -3.9809456413,
              0
            ]
          ]
        ]
      },
      "properties": {
        "id": null,
        "Name": null,
        "descriptio": "0",
        "timestamp": null,
        "begin": null,
        "end": null,
        "altitudeMo": "relativeToGround",
        "tessellate": -1,
        "extrude": 1,
        "visibility": -1,
        "drawOrder": null,
        "icon": null,
        "Entity": null,
        "Layer": null,
        "Color": null,
        "Linetype": null,
        "Elevation": null,
        "LineWt": null,
        "RefName": null,
        "FID_": null,
        "path": "X:\\Mwache Catchment\\Data\\Tree Areas\\sgr.shp"
      }
    },
    {
      "type": "Feature",
      "geometry": {
        "type": "Polygon",
        "coordinates": [
          [
            [
              39.5318900327,
              -3.9816857871,
              0
            ],
            [
              39.5316686555,
              -3.9820901224,
              0
            ],
            [
              39.5313238245,
              -3.9826862199,
              0
            ],
            [
              39.5306626778,
              -3.9822370825,
              0
            ],
            [
              39.5313615195,
              -3.9812235274,
              0
            ],
            [
              39.5319544084,
              -3.9815656067,
              0
            ],
            [
              39.5318900327,
              -3.9816857871,
              0
            ]
          ]
        ]
      },
      "properties": {
        "id": null,
        "Name": null,
        "descriptio": "0",
        "timestamp": null,
        "begin": null,
        "end": null,
        "altitudeMo": "relativeToGround",
        "tessellate": -1,
        "extrude": 1,
        "visibility": -1,
        "drawOrder": null,
        "icon": null,
        "Entity": null,
        "Layer": null,
        "Color": null,
        "Linetype": null,
        "Elevation": null,
        "LineWt": null,
        "RefName": null,
        "FID_": null,
        "path": "X:\\Mwache Catchment\\Data\\Tree Areas\\so.shp"
      }
    }
  ]
}